IRIDIUM 166             
1 43570U 18061B   24352.86799135  .00000665  00000+0  23047-3 0  9994
2 43570  86.3960 285.0225 0001853  87.2877 272.8531 14.34222350335097
IRIDIUM 158             
1 43571U 18061C   24352.69673961  .00000368  00000+0  12446-3 0  9995
2 43571  86.3959 285.1037 0002068  77.8700 282.2727 14.34219965335031
IRIDIUM 165             
1 43572U 18061D   24352.79188014  .00000132  00000+0  40156-4 0  9996
2 43572  86.3963 285.1000 0002200  87.5911 272.5537 14.34218533335072
IRIDIUM 155             
1 43573U 18061E   24352.82358987  .00000473  00000+0  16168-3 0  9992
2 43573  86.3958 284.9827 0001855  79.7199 280.4206 14.34220836335044
IRIDIUM 154             
1 43574U 18061F   24352.87432693  .00000638  00000+0  22087-3 0  9995
2 43574  86.3963 285.0682 0002255  85.5950 274.5503 14.34220048335103
IRIDIUM 163             
1 43575U 18061G   24352.85530622  .00000126  00000+0  37923-4 0  9993
2 43575  86.3960 285.0087 0002110  80.4285 279.7149 14.34218462335071
IRIDIUM 156             
1 43576U 18061H   24352.89970789  .00000648  00000+0  22434-3 0  9999
2 43576  86.3959 284.9967 0001845  83.3306 276.8099 14.34214343335071
IRIDIUM 164             
1 43577U 18061J   24352.88067289  .00000689  00000+0  23905-3 0  9990
2 43577  86.3961 285.0363 0002151  91.9500 268.1942 14.34222125335112
